{
  "type": "FeatureCollection",
  "features": [
    {
      "type": "Feature",
      "properties": {
        "norad_id": 43260,
        "name": "GAOFEN-1 03",
        "group": "resource",
        "lat": -37.416863604606895,
        "lon": 51.143700067359624,
        "alt_km": 645.5774759770602,
        "timestamp": "2025-12-13T05:42:57.154724+00:00",
        "meta_object_name": "GAOFEN-1 03",
        "meta_object_id": "2018-031B",
        "meta_epoch": "2025-12-12T07:06:56.539008",
        "meta_mean_motion": 14.76435539,
        "meta_eccentricity": 0.00020134,
        "meta_inclination": 98.08,
        "meta_ra_of_asc_node": 43.9626,
        "meta_arg_of_pericenter": 324.306,
        "meta_mean_anomaly": 35.8014,
        "meta_ephemeris_type": 0,
        "meta_classification_type": "U",
        "meta_norad_cat_id": 43260,
        "meta_element_set_no": 999,
        "meta_rev_at_epoch": 41511,
        "meta_bstar": 0.00022369076,
        "meta_mean_motion_dot": 1.504e-05,
        "meta_mean_motion_ddot": 0,
        "tle_line1": "1 43260U 18031B   25346.29648772  .00001504  00000+0  22369-3 0  9997",
        "tle_line2": "2 43260  98.0800  43.9626 0002013 324.3060  35.8014 14.76435539415116"
      },
      "geometry": {
        "type": "Point",
        "coordinates": [
          51.143700067359624,
          -37.416863604606895
        ]
      }
    },
    {
      "type": "Feature",
      "properties": {
        "norad_id": 43262,
        "name": "GAOFEN-1 04",
        "group": "resource",
        "lat": 81.74549650861582,
        "lon": -56.60706213594353,
        "alt_km": 632.4454518176108,
        "timestamp": "2025-12-13T05:42:57.154734+00:00",
        "meta_object_name": "GAOFEN-1 04",
        "meta_object_id": "2018-031D",
        "meta_epoch": "2025-12-12T08:09:28.351872",
        "meta_mean_motion": 14.76451296,
        "meta_eccentricity": 0.00011003,
        "meta_inclination": 98.0805,
        "meta_ra_of_asc_node": 44.1749,
        "meta_arg_of_pericenter": 58.9336,
        "meta_mean_anomaly": 301.1981,
        "meta_ephemeris_type": 0,
        "meta_classification_type": "U",
        "meta_norad_cat_id": 43262,
        "meta_element_set_no": 999,
        "meta_rev_at_epoch": 41511,
        "meta_bstar": 0.00034756002,
        "meta_mean_motion_dot": 2.367e-05,
        "meta_mean_motion_ddot": 0,
        "tle_line1": "1 43262U 18031D   25346.33991148  .00002367  00000+0  34756-3 0  9993",
        "tle_line2": "2 43262  98.0805  44.1749 0001100  58.9336 301.1981 14.76451296415114"
      },
      "geometry": {
        "type": "Point",
        "coordinates": [
          -56.60706213594353,
          81.74549650861582
        ]
      }
    },
    {
      "type": "Feature",
      "properties": {
        "norad_id": 43437,
        "name": "SENTINEL-3B",
        "group": "resource",
        "lat": 10.478700941014903,
        "lon": -125.97502875398591,
        "alt_km": 803.722816283489,
        "timestamp": "2025-12-13T05:42:57.154744+00:00",
        "meta_object_name": "SENTINEL-3B",
        "meta_object_id": "2018-039A",
        "meta_epoch": "2025-12-11T10:50:50.552736",
        "meta_mean_motion": 14.26742264,
        "meta_eccentricity": 0.00015576,
        "meta_inclination": 98.6268,
        "meta_ra_of_asc_node": 50.6556,
        "meta_arg_of_pericenter": 104.2946,
        "meta_mean_anomaly": 255.8408,
        "meta_ephemeris_type": 0,
        "meta_classification_type": "U",
        "meta_norad_cat_id": 43437,
        "meta_element_set_no": 999,
        "meta_rev_at_epoch": 39735,
        "meta_bstar": 0.00012251697,
        "meta_mean_motion_dot": 2.53e-06,
        "meta_mean_motion_ddot": 0,
        "tle_line1": "1 43437U 18039A   25345.45197399  .00000253  00000+0  12252-3 0  9992",
        "tle_line2": "2 43437  98.6268  50.6556 0001557 104.2946 255.8408 14.26742264397350"
      },
      "geometry": {
        "type": "Point",
        "coordinates": [
          -125.97502875398591,
          10.478700941014903
        ]
      }
    },
    {
      "type": "Feature",
      "properties": {
        "norad_id": 43461,
        "name": "GAOFEN-5 01",
        "group": "resource",
        "lat": -38.23310020522106,
        "lon": 123.50219963352023,
        "alt_km": 698.6263045277783,
        "timestamp": "2025-12-13T05:42:57.154755+00:00",
        "meta_object_name": "GAOFEN-5 01",
        "meta_object_id": "2018-043A",
        "meta_epoch": "2025-12-12T04:03:09.333792",
        "meta_mean_motion": 14.60409081,
        "meta_eccentricity": 9.965e-05,
        "meta_inclination": 98.4325,
        "meta_ra_of_asc_node": 309.1261,
        "meta_arg_of_pericenter": 342.6516,
        "meta_mean_anomaly": 17.4649,
        "meta_ephemeris_type": 0,
        "meta_classification_type": "U",
        "meta_norad_cat_id": 43461,
        "meta_element_set_no": 999,
        "meta_rev_at_epoch": 40439,
        "meta_bstar": 0.00017210659,
        "meta_mean_motion_dot": 7.84e-06,
        "meta_mean_motion_ddot": 0,
        "tle_line1": "1 43461U 18043A   25346.16885803  .00000784  00000+0  17211-3 0  9996",
        "tle_line2": "2 43461  98.4325 309.1261 0000996 342.6516  17.4649 14.60409081404398"
      },
      "geometry": {
        "type": "Point",
        "coordinates": [
          123.50219963352023,
          -38.23310020522106
        ]
      }
    },
    {
      "type": "Feature",
      "properties": {
        "norad_id": 43484,
        "name": "GAOFEN-6",
        "group": "resource",
        "lat": -62.05445732419219,
        "lon": -143.4923121987993,
        "alt_km": 656.6557037328012,
        "timestamp": "2025-12-13T05:42:57.154765+00:00",
        "meta_object_name": "GAOFEN-6",
        "meta_object_id": "2018-048A",
        "meta_epoch": "2025-12-12T07:28:34.203936",
        "meta_mean_motion": 14.76566118,
        "meta_eccentricity": 0.00132427,
        "meta_inclination": 97.8028,
        "meta_ra_of_asc_node": 50.5925,
        "meta_arg_of_pericenter": 64.9675,
        "meta_mean_anomaly": 295.2909,
        "meta_ephemeris_type": 0,
        "meta_classification_type": "U",
        "meta_norad_cat_id": 43484,
        "meta_element_set_no": 999,
        "meta_rev_at_epoch": 40581,
        "meta_bstar": 0.00023171045,
        "meta_mean_motion_dot": 1.569e-05,
        "meta_mean_motion_ddot": 0,
        "tle_line1": "1 43484U 18048A   25346.31150699  .00001569  00000+0  23171-3 0  9995",
        "tle_line2": "2 43484  97.8028  50.5925 0013242  64.9675 295.2909 14.76566118405813"
      },
      "geometry": {
        "type": "Point",
        "coordinates": [
          -143.4923121987993,
          -62.05445732419219
        ]
      }
    },
    {
      "type": "Feature",
      "properties": {
        "norad_id": 43585,
        "name": "GAOFEN-11 01",
        "group": "resource",
        "lat": 0.10129806731738895,
        "lon": -129.81929701920527,
        "alt_km": 423.92991005162276,
        "timestamp": "2025-12-13T05:42:57.154776+00:00",
        "meta_object_name": "GAOFEN-11 01",
        "meta_object_id": "2018-063A",
        "meta_epoch": "2025-12-12T07:14:22.619616",
        "meta_mean_motion": 15.49209977,
        "meta_eccentricity": 0.00042463,
        "meta_inclination": 97.1561,
        "meta_ra_of_asc_node": 49.2392,
        "meta_arg_of_pericenter": 315.2823,
        "meta_mean_anomaly": 44.8086,
        "meta_ephemeris_type": 0,
        "meta_classification_type": "U",
        "meta_norad_cat_id": 43585,
        "meta_element_set_no": 999,
        "meta_rev_at_epoch": 41135,
        "meta_bstar": 0.00054980553,
        "meta_mean_motion_dot": 0.00029958,
        "meta_mean_motion_ddot": 0,
        "tle_line1": "1 43585U 18063A   25346.30165069  .00029958  00000+0  54981-3 0  9995",
        "tle_line2": "2 43585  97.1561  49.2392 0004246 315.2823  44.8086 15.49209977411352"
      },
      "geometry": {
        "type": "Point",
        "coordinates": [
          -129.81929701920527,
          0.10129806731738895
        ]
      }
    },
    {
      "type": "Feature",
      "properties": {
        "norad_id": 43613,
        "name": "ICESAT-2",
        "group": "resource",
        "lat": -58.72185468974748,
        "lon": 57.567010625394516,
        "alt_km": 487.85171968700706,
        "timestamp": "2025-12-13T05:42:57.154787+00:00",
        "meta_object_name": "ICESAT-2",
        "meta_object_id": "2018-070A",
        "meta_epoch": "2025-12-12T05:06:14.846112",
        "meta_mean_motion": 15.28375704,
        "meta_eccentricity": 0.00027398,
        "meta_inclination": 92.0043,
        "meta_ra_of_asc_node": 240.5952,
        "meta_arg_of_pericenter": 151.1357,
        "meta_mean_anomaly": 209.0044,
        "meta_ephemeris_type": 0,
        "meta_classification_type": "U",
        "meta_norad_cat_id": 43613,
        "meta_element_set_no": 999,
        "meta_rev_at_epoch": 40390,
        "meta_bstar": 0.0006894064,
        "meta_mean_motion_dot": 0.00019062,
        "meta_mean_motion_ddot": 0,
        "tle_line1": "1 43613U 18070A   25346.21267183  .00019062  00000+0  68941-3 0  9991",
        "tle_line2": "2 43613  92.0043 240.5952 0002739 151.1357 209.0044 15.28375704403905"
      },
      "geometry": {
        "type": "Point",
        "coordinates": [
          57.567010625394516,
          -58.72185468974748
        ]
      }
    }
  ]
}